IRIDIUM 7               
1 24793U 97020B   25043.92310272  .00000663  00000+0  22252-3 0  9993
2 24793  86.3936 228.9326 0002137  98.2401 261.9038 14.35758183454064
IRIDIUM 5               
1 24795U 97020D   25043.76054968  .00008173  00000+0  70353-3 0  9993
2 24795  86.3948 141.0374 0111570 223.7263 135.5090 14.92456568466893
IRIDIUM 4               
1 24796U 97020E   25043.91522532  .00000619  00000+0  20362-3 0  9990
2 24796  86.3937 225.8944 0001962  94.2784 265.8637 14.36667963454621
IRIDIUM 914             
1 24836U 97030A   25043.91671428  .00000770  00000+0  23529-3 0  9991
2 24836  86.3902 234.8728 0000390  91.8994 268.2250 14.40651664589238
IRIDIUM 16              
1 24841U 97030F   25043.82983555  .00000664  00000+0  21083-3 0  9999
2 24841  86.3986 257.5186 0004147 102.0123 258.1540 14.38511176449122
IRIDIUM 911             
1 24842U 97030G   25043.96347374  .00000889  00000+0  23692-3 0  9995
2 24842  86.4411 256.3602 0015240 145.2193 215.0010 14.47360308457110
IRIDIUM 17              
1 24870U 97034B   25043.74027864  .00000683  00000+0  22099-3 0  9997
2 24870  86.3937 287.1172 0003641  75.3885 284.7717 14.37628542445705
IRIDIUM 920             
1 24871U 97034C   25043.68621091  .00000660  00000+0  19772-3 0  9992
2 24871  86.3930 266.6342 0013068 126.5600 233.6804 14.41330401448643
